NORAD_CAT_ID,OBJECT_NAME,OBJECT_TYPE,EPOCH,MEAN_MOTION,ECCENTRICITY,INCLINATION,RA_OF_ASC_NODE,ARG_OF_PERICENTER,MEAN_ANOMALY,BSTAR,MEAN_MOTION_DOT,MEAN_MOTION_DDOT,TLE_LINE0,TLE_LINE1,TLE_LINE2,SEMIMAJOR_AXIS,PERIOD,APOGEE,PERIGEE,DECAYED
49164.0,STARLINK-3106,PAYLOAD,2021-10-28 14:00:01,15.69698205,0.0004041,70.0004,1.8481,293.7519,9.0309,0.00053897,0.00064496,0.0,0 STARLINK-3106,1 49164U 21082AL  21301.58335648  .00064496  00000-0  53897-3 0  9990,2 49164  70.0004   1.8481 0004041 293.7519   9.0309 15.69698205  3650,6737.898,91.737,362.485,357.04,0.0
49164.0,STARLINK-3106,PAYLOAD,2021-10-28 22:00:00,15.69718863,0.0003951,70.0004,0.911,289.6515,96.1616,0.00028113,0.00033443,0.0,0 STARLINK-3106,1 49164U 21082AL  21301.91667824  .00033443  00000-0  28113-3 0  9992,2 49164  70.0004   0.9110 0003951 289.6515  96.1616 15.69718863  3660,6737.8380000000025,91.736,362.366,357.041,0.0
49164.0,STARLINK-3106,PAYLOAD,2021-10-29 06:00:00,15.697485999999998,0.0004113,70.0002,359.9651,293.2383,175.4759,-2.3384e-05,-3.003e-05,0.0,0 STARLINK-3106,1 49164U 21082AL  21302.25001157 -.00003003  00000-0 -23384-4 0  9998,2 49164  70.0002 359.9651 0004113 293.2383 175.4759 15.69748600  8352,6737.753000000002,91.734,362.39,356.847,0.0
49164.0,STARLINK-3106,PAYLOAD,2021-10-29 14:00:01,15.69772757,0.0003964,70.0008,359.0369,294.3718,257.779,-0.00033194,-0.00039695,0.0,0 STARLINK-3106,1 49164U 21082AL  21302.58335648 -.00039695  00000-0 -33194-3 0  9994,2 49164  70.0008 359.0369 0003964 294.3718 257.7790 15.69772757  3660,6737.684,91.733,362.22,356.87800000000016,0.0
49164.0,STARLINK-3106,PAYLOAD,2021-10-29 22:00:01,15.69752887,0.0004093999999999,70.0001,358.0913,282.8614,352.1679,-8.290799999999999e-05,-0.00010101,0.0,0 STARLINK-3106,1 49164U 21082AL  21302.91668981 -.00010101  00000-0 -82908-4 0  9999,2 49164  70.0001 358.0913 0004094 282.8614 352.1679 15.69752887  3667,6737.741,91.734,362.364,356.848,0.0
49164.0,STARLINK-3106,PAYLOAD,2021-10-30 06:00:00,15.69776642,0.0003711,70.0008,357.1635,290.5768,67.6871,-0.00019343,-0.00023267,0.0,0 STARLINK-3106,1 49164U 21082AL  21303.25001157 -.00023267  00000-0 -19343-3 0  9992,2 49164  70.0008 357.1635 0003711 290.5768  67.6871 15.69776642  8512,6737.6730000000025,91.733,362.038,357.038,0.0
49164.0,STARLINK-3106,PAYLOAD,2021-10-30 14:00:01,15.69738816,0.000386,70.0005,356.2263,295.7757,145.703,0.00056413,0.00067653,0.0,0 STARLINK-3106,1 49164U 21082AL  21303.58335648  .00067653  00000-0  56413-3 0  9997,2 49164  70.0005 356.2263 0003860 295.7757 145.7030 15.69738816  3685,6737.781,91.735,362.247,357.046,0.0
49164.0,STARLINK-3106,PAYLOAD,2021-10-30 22:00:00,15.69795912,0.0003854,70.0005,355.2892,291.0486,233.5221,-0.00035703,-0.00042704,0.0,0 STARLINK-3106,1 49164U 21082AL  21303.91667824 -.00042704  00000-0 -35703-3 0  9999,2 49164  70.0005 355.2892 0003854 291.0486 233.5221 15.69795912  8619,6737.618,91.732,362.08,356.886,0.0
49164.0,STARLINK-3106,PAYLOAD,2021-10-31 06:00:00,15.69757228,0.0003893,70.0002,354.3439,293.4052,314.0596,-0.00012116,-0.00014657,0.0,0 STARLINK-3106,1 49164U 21082AL  21304.25001157 -.00014657  00000-0 -12116-3 0  9997,2 49164  70.0002 354.3439 0003893 293.4052 314.0596 15.69757228  8664,6737.729,91.734,362.217,356.971,0.0
49164.0,STARLINK-3106,PAYLOAD,2021-10-31 14:00:01,15.6977512,0.0004068,70.0007,353.4153,295.0196,35.7925,-0.00013718,-0.00016576,0.0,0 STARLINK-3106,1 49164U 21082AL  21304.58334491 -.00016576  00000-0 -13718-3 0  9994,2 49164  70.0007 353.4153 0004068 295.0196  35.7925 15.69775120  8725,6737.677,91.733,362.283,356.802,0.0
49164.0,STARLINK-3106,PAYLOAD,2021-10-31 22:00:01,15.69701483,0.000372,70.0007,352.4785,291.3956,122.65,0.00046126,0.00055108,0.0,0 STARLINK-3106,1 49164U 21082AL  21304.91668981  .00055108  00000-0  46126-3 0  9996,2 49164  70.0007 352.4785 0003720 291.3956 122.6500 15.69701483  3677,6737.888000000001,91.737,362.26,357.247,0.0
49164.0,STARLINK-3106,PAYLOAD,2021-11-01 14:00:01,15.69736207,0.0004079,70.0002,350.605,295.358,284.8777,1.7930000000000002e-08,-2.1e-06,0.0,0 STARLINK-3106,1 49164U 21082AL  21305.58334491 -.00000210  00000-0  17930-7 0  9996,2 49164  70.0002 350.6050 0004079 295.3580 284.8777 15.69736207  3682,6737.7890000000025,91.735,362.402,356.905,0.0
49164.0,STARLINK-3106,PAYLOAD,2021-11-01 22:00:00,15.6971918,0.0003951,70.0001,349.6678,290.6573,12.6972,0.00021806,0.0002587,0.0,0 STARLINK-3106,1 49164U 21082AL  21305.91667824  .00025870  00000-0  21806-3 0  9993,2 49164  70.0001 349.6678 0003951 290.6573  12.6972 15.69719180  8931,6737.837,91.736,362.365,357.04,0.0
49164.0,STARLINK-3106,PAYLOAD,2021-11-02 14:00:01,15.69689209,0.00039,70.0,347.7938,296.3747,173.1617,0.00050451,0.00060304,0.0,0 STARLINK-3106,1 49164U 21082AL  21306.58334491  .00060304  00000-0  50451-3 0  9997,2 49164  70.0000 347.7938 0003900 296.3747 173.1617 15.69689209  9037,6737.9230000000025,91.738,362.416,357.16,0.0
49164.0,STARLINK-3106,PAYLOAD,2021-11-02 22:00:00,15.69697326,0.0003754,70.0001,346.8571,292.1923,260.443,0.00066265,0.0007947999999999,0.0,0 STARLINK-3106,1 49164U 21082AL  21306.91667824  .00079480  00000-0  66265-3 0  9998,2 49164  70.0001 346.8571 0003754 292.1923 260.4430 15.69697326  3674,6737.9,91.737,362.294,357.236,0.0
49164.0,STARLINK-3106,PAYLOAD,2021-11-03 14:00:01,15.69774715,0.0004112,69.9993,344.9833,295.4083,63.4687,-0.00041613,-0.00049657,0.0,0 STARLINK-3106,1 49164U 21082AL  21307.58334491 -.00049657  00000-0 -41613-3 0  9998,2 49164  69.9993 344.9833 0004112 295.4083  63.4687 15.69774715  9199,6737.679,91.733,362.314,356.773,0.0
49164.0,STARLINK-3106,PAYLOAD,2021-11-03 22:00:00,15.69685618,0.000407,69.9993,344.0462,289.2126,152.8107,0.0007188,0.00086266,0.0,0 STARLINK-3106,1 49164U 21082AL  21307.91667824  .00086266  00000-0  71880-3 0  9998,2 49164  69.9993 344.0462 0004070 289.2126 152.8107 15.69685618  3681,6737.934,91.738,362.541,357.056,0.0
49164.0,STARLINK-3106,PAYLOAD,2021-11-04 06:00:00,15.6976051,0.0004126,69.9993,343.1091,290.143,234.96,-0.00016713,-0.00020129,0.0,0 STARLINK-3106,1 49164U 21082AL  21308.25001157 -.00020129  00000-0 -16713-3 0  9999,2 49164  69.9993 343.1091 0004126 290.1430 234.9600 15.69760510  9298,6737.719,91.734,362.364,356.80400000000014,0.0
49164.0,STARLINK-3106,PAYLOAD,2021-11-04 14:00:01,15.69763725,0.0004199,69.999,342.1718,294.5095,313.7468,0.00048107,0.00057655,0.0,0 STARLINK-3106,1 49164U 21082AL  21308.58334491  .00057655  00000-0  48107-3 0  9999,2 49164  69.9990 342.1718 0004199 294.5095 313.7468 15.69763725  3670,6737.71,91.734,362.404,356.746,0.0
49164.0,STARLINK-3106,PAYLOAD,2021-11-04 22:00:00,15.69799616,0.0003954,69.999,341.235,290.3911,41.0958,0.0011184,0.00135775,0.0,0 STARLINK-3106,1 49164U 21082AL  21308.91667824  .00135775  00000-0  11184-2 0  9999,2 49164  69.9990 341.2350 0003954 290.3911  41.0958 15.69799616  9401,6737.607,91.731,362.136,356.80800000000005,0.0
49164.0,STARLINK-3106,PAYLOAD,2021-11-05 04:00:00,15.69928997,0.0003983,69.9994,340.5322,289.7029,14.1935,-0.00062803,-0.00075084,0.0,0 STARLINK-3106,1 49164U 21082AL  21309.16667824 -.00075084  00000-0 -62803-3 0  9990,2 49164  69.9994 340.5322 0003983 289.7029  14.1935 15.69928997  9446,6737.236999999999,91.724,361.786,356.4190000000001,0.0
49164.0,STARLINK-3106,PAYLOAD,2021-11-05 14:00:01,15.69813126,0.0004184,69.9986,339.3605,294.1882,203.7849,-0.0012795,-0.00150678,0.0,0 STARLINK-3106,1 49164U 21082AL  21309.58334491 -.00150678  00000-0 -12795-2 0  9994,2 49164  69.9986 339.3605 0004184 294.1882 203.7849 15.69813126  9502,6737.569,91.731,362.253,356.615,0.0
49164.0,STARLINK-3106,PAYLOAD,2021-11-05 22:00:00,15.69675136,0.0004116,69.9986,338.4231,288.4175,292.7101,-0.0012605,-0.00147649,0.0,0 STARLINK-3106,1 49164U 21082AL  21309.91667824 -.00147649  00000-0 -12605-2 0  9994,2 49164  69.9986 338.4231 0004116 288.4175 292.7101 15.69675136  3727,6737.964,91.739,362.602,357.055,0.0
49164.0,STARLINK-3106,PAYLOAD,2021-11-06 04:00:01,15.69558141,0.0004157,69.9988,337.7207,289.2333,264.1841,-0.00037537,-0.00044444,0.0,0 STARLINK-3106,1 49164U 21082AL  21310.16668981 -.00044444  00000-0 -37537-3 0  9999,2 49164  69.9988 337.7207 0004157 289.2333 264.1841 15.69558141  9595,6738.2980000000025,91.746,362.964,357.362,0.0
49164.0,STARLINK-3106,PAYLOAD,2021-11-06 08:00:03,15.69471669,0.0004118,69.9986,337.2521,291.472,123.4712,0.001382,0.00166181,0.0,0 STARLINK-3106,1 49164U 21082AL  21310.33336806  .00166181  00000-0  13820-2 0  9995,2 49164  69.9986 337.2521 0004118 291.4720 123.4712 15.69471669  3709,6738.545999999999,91.751,363.186,357.636,0.0
49164.0,STARLINK-3106,PAYLOAD,2021-11-06 12:00:00,15.6950301,0.0004108,69.9987,336.7836,295.1428,341.0882,0.002126,0.0025896,0.0,0 STARLINK-3106,1 49164U 21082AL  21310.50001157  .00258960  00000-0  21260-2 0  9996,2 49164  69.9987 336.7836 0004108 295.1428 341.0882 15.69503010  9650,6738.456,91.749,363.089,357.55300000000005,0.0
49164.0,STARLINK-3106,PAYLOAD,2021-11-06 16:00:00,15.69619034,0.0004,69.9984,336.315,294.3934,203.2684,0.0011298,0.0013615,0.0,0 STARLINK-3106,1 49164U 21082AL  21310.66667824  .00136150  00000-0  11298-2 0  9998,2 49164  69.9984 336.3150 0004000 294.3934 203.2684 15.69619034  3653,6738.124,91.742,362.684,357.2940000000001,0.0
49164.0,STARLINK-3106,PAYLOAD,2021-11-06 20:00:01,15.69661593,0.000393,69.9988,335.8465,291.3976,67.8312,0.0011448,0.00138235,0.0,0 STARLINK-3106,1 49164U 21082AL  21310.83335648  .00138235  00000-0  11448-2 0  9996,2 49164  69.9988 335.8465 0003930 291.3976  67.8312 15.69661593  9705,6738.002,91.74,362.515,357.219,0.0
49164.0,STARLINK-3106,PAYLOAD,2021-11-07 04:00:00,15.69788241,0.0003923,69.9992,334.9097,290.0991,152.137,-0.00011608,-0.00014071,0.0,0 STARLINK-3106,1 49164U 21082AL  21311.16667824 -.00014071  00000-0 -11608-3 0  9999,2 49164  69.9992 334.9097 0003923 290.0991 152.1370 15.69788241  9753,6737.64,91.732,362.148,356.862,0.0
